#aV2008  2 15  0  0   .00000000      96 DD+AD WGS84 FIT  NGA
## 1466 432000.00000000   900.00000000 54511  .0000000000000
+   31     1  2  3  4  5  6  8  9 10 11 12 13 14 15 16 17 18
+         19 20 21 22 23 24 25 26 27 28 29 30 31 32  0  0  0
+          0  0  0  0  0  0  0  0  0  0  0  0  0  0  0  0  0
+          0  0  0  0  0  0  0  0  0  0  0  0  0  0  0  0  0
+          0  0  0  0  0  0  0  0  0  0  0  0  0  0  0  0  0
++         0  0  0  0  0  0  0  0  0  0  0  0  0  0  0  0  0
++         0  0  0  0  0  0  0  0  0  0  0  0  0  0  0  0  0
++         0  0  0  0  0  0  0  0  0  0  0  0  0  0  0  0  0
++         0  0  0  0  0  0  0  0  0  0  0  0  0  0  0  0  0
++         0  0  0  0  0  0  0  0  0  0  0  0  0  0  0  0  0
%c cc cc ccc ccc cccc cccc cccc cccc ccccc ccccc ccccc ccccc
%c cc cc ccc ccc cccc cccc cccc cccc ccccc ccccc ccccc ccccc
%f  0.0000000  0.000000000  0.00000000000  0.000000000000000
%f  0.0000000  0.000000000  0.00000000000  0.000000000000000
%i    0    0    0    0      0      0      0      0         0
%i    0    0    0    0      0      0      0      0         0
/*      NGA, ST. LOUIS,MO.                                  
/*   EPHEMERIS COMPUTED FROM  3 DAYS OF DATA                
/* CCCCCCCCCCCCCCCCCCCCCCCCCCCCCCCCCCCCCCCCCCCCCCCCCCCCCCCCC
/* CCCCCCCCCCCCCCCCCCCCCCCCCCCCCCCCCCCCCCCCCCCCCCCCCCCCCCCCC
*  2008  2 15  1  0   .00000000                                                 
P  1 -14406.016318 -16467.300318  15326.934357    185.787160                    
V  1  18109.150171   5822.219890  23547.606607       .025144                    
P  2  12932.960788  20430.405553 -11541.223648    174.441611                    
V  2    508.268392  14511.582159  26352.006430       .030335                    
P  3 -22911.947348 -11302.939083  -8132.730908    187.350142                    
V  3  10427.620652  -1067.863436 -28428.088523       .052280                    
P  4   5691.940031  25724.027310   -925.950257     -9.052599                    
V  4  -3420.246983   1765.508115  31567.401793      -.066055                    
P  5  20634.024317 -15240.305072   6328.483311    689.072000                    
V  5  -3273.067405   8489.411667  30020.010181       .144773                    
P  6   7355.073681 -14134.325459 -21099.956749     22.032480                    
V  6  26082.041559   7952.672771   3690.049948       .181415                    
P  8  -1182.867103  25231.366520  -7476.354390   -141.059028                    
V  8  -3791.722815  -9005.218115 -30591.441561      -.014636                    
P  9  14861.394107   -985.505847  21386.733001    110.544066                    
V  9   6604.822201  27829.443667  -3049.308858       .018735                    
P 10  15163.811788   6284.674671 -21073.328426   -245.967246                    
V 10 -19783.995770  17457.902014  -8757.477295      -.093745                    
P 11 -15856.926335   5075.214883  20555.521600     27.013174                    
V 11 -10037.715469 -24803.892633  -1281.791032      -.000037                    
P 12  22249.781892  -9822.804803  10671.363168   -356.513509                    
V 12  -8442.904891  10728.914188  27797.805832      -.007645                    
P 13 -13569.090119   9356.030306 -20926.900834    240.191449                    
V 13 -24316.879895  -9893.379330  11430.700904       .021360                    
P 14  -3907.242592 -16042.743084  20927.353103   -297.465423                    
V 14  24875.575206   8371.248972  11028.229361       .038722                    
P 15  25688.787679   6155.178763   2778.672766    -76.900007                    
V 15   2449.601161   3822.871495 -31428.341679      -.028086                    
P 16 -11347.582989 -10082.813541 -21727.725758    132.810620                    
V 16  20969.751134 -18167.750316  -2332.967899      -.000546                    
P 17   3305.050808  16435.861939  20660.345900     42.534721                    
V 17 -24995.342609  -7708.410280   9991.488436      -.006130                    
P 18  16816.080529 -19452.124641   6041.743605   -204.317702                    
V 18   7933.862308  -2232.065591 -30457.711821       .030406                    
P 19 -25298.194098  -7613.173564   3592.145314     20.799125                    
V 19  -3073.188987  -4213.862995 -31139.643523       .014167                    
P 20 -22034.111734  12198.305748   8242.881668    120.549728                    
V 20   5807.761225  -9426.045526  29123.317728      -.007676                    
P 21   7154.501911 -20658.227144 -14497.481389     71.662972                    
V 21   6345.089401  18161.049861 -23096.185853      -.008136                    
P 22   5227.350336 -19919.017442  16906.638280    208.455557                    
V 22  17746.203346 -11824.912294 -19636.720987       .006113                    
P 23 -23906.224046    554.444890 -11867.669797    334.130785                    
V 23 -13497.512354  -6522.574307  26802.638756       .027865                    
P 24  13500.896000  -9304.548619 -20776.136655     70.590454                    
V 24   4747.190690  26328.127414  -8351.934870       .029926                    
P 25  -9838.262978  14493.539529 -19644.203502    512.277078                    
V 25  -8644.529743 -24230.904496 -13132.096544       .055193                    
P 26  24945.985749   9971.377054   -720.477653    183.476255                    
V 26   -771.058793   1102.546160 -32074.064860       .099852                    
P 27  -5430.584063  20401.078597 -15339.992764    167.885719                    
V 27  -7485.074550 -19482.415719 -22460.682947       .026314                    
P 28  -7343.739779  20338.261094  15557.491640    -15.145933                    
V 28 -16016.677838  10831.663455 -22591.482901      -.005623                    
P 29  17219.646855  -7717.117308 -18566.611176    -60.278521                    
V 29  21966.123679   9353.847387  16407.593676       .054816                    
P 30  18986.486578 -18492.934531   -241.390034     63.863748                    
V 30   2231.873745   2444.771797  31538.383364       .014199                    
P 31  -7137.383802 -25379.708094  -2549.063090     -9.224356                    
V 31   1955.084673  -3987.472176  31716.243026      -.014221                    
P 32  -3300.706473 -15902.625094  21497.097750    228.395646                    
V 32  21261.264606 -15311.160904  -8067.945126       .092105                    
EOF
